{
  "type": "FeatureCollection",
  "features": [
    {
      "type": "Feature",
      "properties": {
        "norad_id": 30162,
        "name": "FENGYUN 1C DEB",
        "group": "fengyun-1c-debris",
        "lat": -32.38265982920275,
        "lon": -135.92491603717735,
        "alt_km": 1167.1621640823105,
        "timestamp": "2025-12-20T09:36:01.919802+00:00",
        "meta_object_name": "FENGYUN 1C DEB",
        "meta_object_id": "1999-025TT",
        "meta_epoch": "2025-12-19T15:32:48.126336",
        "meta_mean_motion": 13.53428039,
        "meta_eccentricity": 0.03138805,
        "meta_inclination": 99.4883,
        "meta_ra_of_asc_node": 49.4413,
        "meta_arg_of_pericenter": 332.0685,
        "meta_mean_anomaly": 180.6549,
        "meta_ephemeris_type": 0,
        "meta_classification_type": "U",
        "meta_norad_cat_id": 30162,
        "meta_element_set_no": 999,
        "meta_rev_at_epoch": 92754,
        "meta_bstar": 0.0021488431,
        "meta_mean_motion_dot": 1.928e-05,
        "meta_mean_motion_ddot": 0,
        "tle_line1": "1 30162U 99025TT  25353.64777924  .00001928  00000+0  21488-2 0  9995",
        "tle_line2": "2 30162  99.4883  49.4413 0313880 332.0685 180.6549 13.53428039927548"
      },
      "geometry": {
        "type": "Point",
        "coordinates": [
          -135.92491603717735,
          -32.38265982920275
        ]
      }
    },
    {
      "type": "Feature",
      "properties": {
        "norad_id": 30163,
        "name": "FENGYUN 1C DEB",
        "group": "fengyun-1c-debris",
        "lat": -2.981324810573505,
        "lon": -72.04087251491266,
        "alt_km": 872.6006287080882,
        "timestamp": "2025-12-20T09:36:01.919812+00:00",
        "meta_object_name": "FENGYUN 1C DEB",
        "meta_object_id": "1999-025TU",
        "meta_epoch": "2025-12-19T06:06:24.880032",
        "meta_mean_motion": 13.38800273,
        "meta_eccentricity": 0.0373884,
        "meta_inclination": 98.7014,
        "meta_ra_of_asc_node": 107.4316,
        "meta_arg_of_pericenter": 216.1421,
        "meta_mean_anomaly": 210.4808,
        "meta_ephemeris_type": 0,
        "meta_classification_type": "U",
        "meta_norad_cat_id": 30163,
        "meta_element_set_no": 999,
        "meta_rev_at_epoch": 92032,
        "meta_bstar": 0.0015415,
        "meta_mean_motion_dot": 1.199e-05,
        "meta_mean_motion_ddot": 0,
        "tle_line1": "1 30163U 99025TU  25353.25445463  .00001199  00000+0  15415-2 0  9996",
        "tle_line2": "2 30163  98.7014 107.4316 0373884 216.1421 210.4808 13.38800273920320"
      },
      "geometry": {
        "type": "Point",
        "coordinates": [
          -72.04087251491266,
          -2.981324810573505
        ]
      }
    },
    {
      "type": "Feature",
      "properties": {
        "norad_id": 30167,
        "name": "FENGYUN 1C DEB",
        "group": "fengyun-1c-debris",
        "lat": -78.5911675090395,
        "lon": 131.53884491029834,
        "alt_km": 821.6409897706326,
        "timestamp": "2025-12-20T09:36:01.919823+00:00",
        "meta_object_name": "FENGYUN 1C DEB",
        "meta_object_id": "1999-025TY",
        "meta_epoch": "2025-12-19T04:17:28.764960",
        "meta_mean_motion": 14.48564883,
        "meta_eccentricity": 0.01442491,
        "meta_inclination": 98.968,
        "meta_ra_of_asc_node": 78.7478,
        "meta_arg_of_pericenter": 135.2818,
        "meta_mean_anomaly": 256.0693,
        "meta_ephemeris_type": 0,
        "meta_classification_type": "U",
        "meta_norad_cat_id": 30167,
        "meta_element_set_no": 999,
        "meta_rev_at_epoch": 99452,
        "meta_bstar": 0.00033930934,
        "meta_mean_motion_dot": 1.399e-05,
        "meta_mean_motion_ddot": 0,
        "tle_line1": "1 30167U 99025TY  25353.17880515  .00001399  00000+0  33931-3 0  9998",
        "tle_line2": "2 30167  98.9680  78.7478 0144249 135.2818 256.0693 14.48564883994523"
      },
      "geometry": {
        "type": "Point",
        "coordinates": [
          131.53884491029834,
          -78.5911675090395
        ]
      }
    },
    {
      "type": "Feature",
      "properties": {
        "norad_id": 30168,
        "name": "FENGYUN 1C DEB",
        "group": "fengyun-1c-debris",
        "lat": 73.1796614482084,
        "lon": -88.70925803022276,
        "alt_km": 644.166758062469,
        "timestamp": "2025-12-20T09:36:01.919833+00:00",
        "meta_object_name": "FENGYUN 1C DEB",
        "meta_object_id": "1999-025TZ",
        "meta_epoch": "2025-12-19T05:01:22.312128",
        "meta_mean_motion": 14.52969122,
        "meta_eccentricity": 0.0100537,
        "meta_inclination": 97.39,
        "meta_ra_of_asc_node": 64.8163,
        "meta_arg_of_pericenter": 133.9009,
        "meta_mean_anomaly": 227.0546,
        "meta_ephemeris_type": 0,
        "meta_classification_type": "U",
        "meta_norad_cat_id": 30168,
        "meta_element_set_no": 999,
        "meta_rev_at_epoch": 98405,
        "meta_bstar": 0.0012919,
        "meta_mean_motion_dot": 5.658e-05,
        "meta_mean_motion_ddot": 0,
        "tle_line1": "1 30168U 99025TZ  25353.20928602  .00005658  00000+0  12919-2 0  9997",
        "tle_line2": "2 30168  97.3900  64.8163 0100537 133.9009 227.0546 14.52969122984050"
      },
      "geometry": {
        "type": "Point",
        "coordinates": [
          -88.70925803022276,
          73.1796614482084
        ]
      }
    },
    {
      "type": "Feature",
      "properties": {
        "norad_id": 30169,
        "name": "FENGYUN 1C DEB",
        "group": "fengyun-1c-debris",
        "lat": 67.3116681487108,
        "lon": 43.35983512830988,
        "alt_km": 796.079038076733,
        "timestamp": "2025-12-20T09:36:01.919844+00:00",
        "meta_object_name": "FENGYUN 1C DEB",
        "meta_object_id": "1999-025UA",
        "meta_epoch": "2025-12-19T03:46:17.488704",
        "meta_mean_motion": 14.58276879,
        "meta_eccentricity": 0.02130488,
        "meta_inclination": 98.3364,
        "meta_ra_of_asc_node": 62.6448,
        "meta_arg_of_pericenter": 207.2146,
        "meta_mean_anomaly": 182.3489,
        "meta_ephemeris_type": 0,
        "meta_classification_type": "U",
        "meta_norad_cat_id": 30169,
        "meta_element_set_no": 999,
        "meta_rev_at_epoch": 97817,
        "meta_bstar": 0.0020227222,
        "meta_mean_motion_dot": 0.0001277,
        "meta_mean_motion_ddot": 0,
        "tle_line1": "1 30169U 99025UA  25353.15714686  .00012770  00000+0  20227-2 0  9991",
        "tle_line2": "2 30169  98.3364  62.6448 0213048 207.2146 182.3489 14.58276879978178"
      },
      "geometry": {
        "type": "Point",
        "coordinates": [
          43.35983512830988,
          67.3116681487108
        ]
      }
    },
    {
      "type": "Feature",
      "properties": {
        "norad_id": 30170,
        "name": "FENGYUN 1C DEB",
        "group": "fengyun-1c-debris",
        "lat": -72.46202985725277,
        "lon": 10.71941822959237,
        "alt_km": 852.3392848780095,
        "timestamp": "2025-12-20T09:36:01.919854+00:00",
        "meta_object_name": "FENGYUN 1C DEB",
        "meta_object_id": "1999-025UB",
        "meta_epoch": "2025-12-19T10:34:51.390048",
        "meta_mean_motion": 14.00316098,
        "meta_eccentricity": 0.0077131,
        "meta_inclination": 98.8487,
        "meta_ra_of_asc_node": 340.2586,
        "meta_arg_of_pericenter": 255.7795,
        "meta_mean_anomaly": 236.4427,
        "meta_ephemeris_type": 0,
        "meta_classification_type": "U",
        "meta_norad_cat_id": 30170,
        "meta_element_set_no": 999,
        "meta_rev_at_epoch": 96509,
        "meta_bstar": 0.00029836,
        "meta_mean_motion_dot": 4.1e-06,
        "meta_mean_motion_ddot": 0,
        "tle_line1": "1 30170U 99025UB  25353.44087257  .00000410  00000+0  29836-3 0  9996",
        "tle_line2": "2 30170  98.8487 340.2586 0077131 255.7795 236.4427 14.00316098965093"
      },
      "geometry": {
        "type": "Point",
        "coordinates": [
          10.71941822959237,
          -72.46202985725277
        ]
      }
    },
    {
      "type": "Feature",
      "properties": {
        "norad_id": 30171,
        "name": "FENGYUN 1C DEB",
        "group": "fengyun-1c-debris",
        "lat": 51.15907660868327,
        "lon": -159.12350222319827,
        "alt_km": 1030.0639250409959,
        "timestamp": "2025-12-20T09:36:01.919864+00:00",
        "meta_object_name": "FENGYUN 1C DEB",
        "meta_object_id": "1999-025UC",
        "meta_epoch": "2025-12-19T02:24:07.516800",
        "meta_mean_motion": 13.96863539,
        "meta_eccentricity": 0.01842581,
        "meta_inclination": 98.3978,
        "meta_ra_of_asc_node": 210.2596,
        "meta_arg_of_pericenter": 249.5074,
        "meta_mean_anomaly": 108.6228,
        "meta_ephemeris_type": 0,
        "meta_classification_type": "U",
        "meta_norad_cat_id": 30171,
        "meta_element_set_no": 999,
        "meta_rev_at_epoch": 96359,
        "meta_bstar": 0.00031681677,
        "meta_mean_motion_dot": 4.69e-06,
        "meta_mean_motion_ddot": 0,
        "tle_line1": "1 30171U 99025UC  25353.10008700  .00000469  00000+0  31682-3 0  9992",
        "tle_line2": "2 30171  98.3978 210.2596 0184258 249.5074 108.6228 13.96863539963594"
      },
      "geometry": {
        "type": "Point",
        "coordinates": [
          -159.12350222319827,
          51.15907660868327
        ]
      }
    }
  ]
}